[{"OBJECT_NAME":"STARLINK-31107","OBJECT_ID":"2023-211T","EPOCH":"2026-03-09T01:25:21.238176","MEAN_MOTION":15.27585804,"ECCENTRICITY":0.0001392,"INCLINATION":42.9994,"RA_OF_ASC_NODE":89.2231,"ARG_OF_PERICENTER":277.9362,"MEAN_ANOMALY":82.1331,"EPHEMERIS_TYPE":0,"CLASSIFICATION_TYPE":"U","NORAD_CAT_ID":58684,"ELEMENT_SET_NO":999,"REV_AT_EPOCH":12236,"BSTAR":-3.73663e-7,"MEAN_MOTION_DOT":-2.72e-6,"MEAN_MOTION_DDOT":0},{"OBJECT_NAME":"GEOSCAN 4 (RS92S4)","OBJECT_ID":"2025-155S","EPOCH":"2026-03-09T21:50:07.724832","MEAN_MOTION":15.30369837,"ECCENTRICITY":0.00070968,"INCLINATION":97.4465,"RA_OF_ASC_NODE":37.7626,"ARG_OF_PERICENTER":154.7045,"MEAN_ANOMALY":205.4544,"EPHEMERIS_TYPE":0,"CLASSIFICATION_TYPE":"U","NORAD_CAT_ID":64892,"ELEMENT_SET_NO":999,"REV_AT_EPOCH":6562,"BSTAR":0.00068609503,"MEAN_MOTION_DOT":0.00020121,"MEAN_MOTION_DDOT":0}]
